start=new Date('2022-02-06T00:00:00.000Z').valueOf();
sats=[{"GP_ID":"195376970","EPOCH":"2022-02-05T15:54:17.264448","CLASSIFICATION_TYPE":"U","MEAN_ELEMENT_THEORY":"SGP4","BSTAR":"-0.00002455600000","NORAD_CAT_ID":"46569","FILE":"3292907","INCLINATION":"53.0549","LAUNCH_DATE":"2020-10-06","MEAN_MOTION_DOT":"-0.00000647","OBJECT_TYPE":"PAYLOAD","OBJECT_ID":"2020-070AP","DECAY_DATE":null,"PERIAPSIS":"545.945","MEAN_MOTION":"15.06400587","ELEMENT_SET_NO":"999","APOAPSIS":"548.478","ARG_OF_PERICENTER":"67.1785","SEMIMAJOR_AXIS":"6925.347","OBJECT_NAME":"STARLINK-1747","TLE_LINE2":"2 46569  53.0549  19.0721 0001829  67.1785 292.9397 15.06400587 74459","ECCENTRICITY":"0.00018290","SITE":"AFETR","CENTER_NAME":"EARTH","EPHEMERIS_TYPE":"0","PERIOD":"95.592","TIME_SYSTEM":"UTC","REF_FRAME":"TEME","MEAN_MOTION_DDOT":"0.0000000000000","RA_OF_ASC_NODE":"19.0721","MEAN_ANOMALY":"292.9397","REV_AT_EPOCH":"7445","COUNTRY_CODE":"US","TLE_LINE1":"1 46569U 20070AP  22036.66269982 -.00000647  00000-0 -24556-4 0  9995","RCS_SIZE":"LARGE"},{"LAUNCH_DATE":"2020-10-06","MEAN_MOTION_DOT":"-0.00003531","NORAD_CAT_ID":"46570","FILE":"3292907","INCLINATION":"53.0572","CLASSIFICATION_TYPE":"U","MEAN_ELEMENT_THEORY":"SGP4","BSTAR":"-0.00021830000000","GP_ID":"195376971","EPOCH":"2022-02-05T18:28:12.723744","ELEMENT_SET_NO":"999","PERIAPSIS":"545.992","MEAN_MOTION":"15.06396691","OBJECT_ID":"2020-070AQ","OBJECT_TYPE":"PAYLOAD","DECAY_DATE":null,"CENTER_NAME":"EARTH","SITE":"AFETR","EPHEMERIS_TYPE":"0","PERIOD":"95.592","TLE_LINE2":"2 46570  53.0572  18.5887 0001778  54.6414 305.4741 15.06396691 74775","ECCENTRICITY":"0.00017780","OBJECT_NAME":"STARLINK-1748","APOAPSIS":"548.455","ARG_OF_PERICENTER":"54.6414","SEMIMAJOR_AXIS":"6925.359","TLE_LINE1":"1 46570U 20070AQ  22036.76959171 -.00003531  00000-0 -21830-3 0  9990","RCS_SIZE":"LARGE","REV_AT_EPOCH":"7477","COUNTRY_CODE":"US","REF_FRAME":"TEME","MEAN_MOTION_DDOT":"0.0000000000000","RA_OF_ASC_NODE":"18.5887","MEAN_ANOMALY":"305.4741","TIME_SYSTEM":"UTC"},{"GP_ID":"195367478","EPOCH":"2022-02-05T06:22:23.051712","CLASSIFICATION_TYPE":"U","MEAN_ELEMENT_THEORY":"SGP4","BSTAR":"0.00079090000000","NORAD_CAT_ID":"46571","FILE":"3292709","INCLINATION":"53.0538","LAUNCH_DATE":"2020-10-06","MEAN_MOTION_DOT":"0.00099294","OBJECT_ID":"2020-070AR","OBJECT_TYPE":"PAYLOAD","DECAY_DATE":null,"PERIAPSIS":"354.021","MEAN_MOTION":"15.70404992","ELEMENT_SET_NO":"999","APOAPSIS":"361.460","SEMIMAJOR_AXIS":"6735.876","ARG_OF_PERICENTER":"95.3369","OBJECT_NAME":"STARLINK-1753","TLE_LINE2":"2 46571  53.0538 354.5423 0005522  95.3369 264.8278 15.70404992 75060","ECCENTRICITY":"0.00055220","SITE":"AFETR","CENTER_NAME":"EARTH","EPHEMERIS_TYPE":"0","PERIOD":"91.696","TIME_SYSTEM":"UTC","MEAN_MOTION_DDOT":"0.0000000000000","REF_FRAME":"TEME","RA_OF_ASC_NODE":"354.5423","MEAN_ANOMALY":"264.8278","REV_AT_EPOCH":"7506","COUNTRY_CODE":"US","TLE_LINE1":"1 46571U 20070AR  22036.26554458  .00099294  00000-0  79090-3 0  9995","RCS_SIZE":"LARGE"},{"TLE_LINE2":"2 46572  53.0551  38.9122 0001594  63.4206 296.6946 15.06382580 74494","ECCENTRICITY":"0.00015940","SITE":"AFETR","CENTER_NAME":"EARTH","PERIOD":"95.593","EPHEMERIS_TYPE":"0","APOAPSIS":"548.371","SEMIMAJOR_AXIS":"6925.402","ARG_OF_PERICENTER":"63.4206","OBJECT_NAME":"STARLINK-1531","REV_AT_EPOCH":"7449","COUNTRY_CODE":"US","TLE_LINE1":"1 46572U 20070AS  22036.70140718 -.00005017  00000-0 -31826-3 0  9992","RCS_SIZE":"LARGE","TIME_SYSTEM":"UTC","REF_FRAME":"TEME","MEAN_MOTION_DDOT":"0.0000000000000","RA_OF_ASC_NODE":"38.9122","MEAN_ANOMALY":"296.6946","NORAD_CAT_ID":"46572","INCLINATION":"53.0551","FILE":"3292894","LAUNCH_DATE":"2020-10-06","MEAN_MOTION_DOT":"-0.00005017","GP_ID":"195376844","EPOCH":"2022-02-05T16:50:01.580352","CLASSIFICATION_TYPE":"U","MEAN_ELEMENT_THEORY":"SGP4","BSTAR":"-0.00031826000000","PERIAPSIS":"546.163","MEAN_MOTION":"15.06382580","ELEMENT_SET_NO":"999","OBJECT_TYPE":"PAYLOAD","OBJECT_ID":"2020-070AS","DECAY_DATE":null},{"OBJECT_NAME":"STARLINK-1650","ARG_OF_PERICENTER":"66.4226","SEMIMAJOR_AXIS":"6925.377","APOAPSIS":"548.442","SITE":"AFETR","CENTER_NAME":"EARTH","EPHEMERIS_TYPE":"0","PERIOD":"95.593","ECCENTRICITY":"0.00017340","TLE_LINE2":"2 46573  53.0550  23.9965 0001734  66.4226 293.6945 15.06390852 74693","REF_FRAME":"TEME","MEAN_MOTION_DDOT":"0.0000000000000","MEAN_ANOMALY":"293.6945","RA_OF_ASC_NODE":"23.9965","TIME_SYSTEM":"UTC","TLE_LINE1":"1 46573U 20070AT  22036.67882161 -.00004358  00000-0 -27393-3 0  9995","RCS_SIZE":"LARGE","REV_AT_EPOCH":"7469","COUNTRY_CODE":"US","CLASSIFICATION_TYPE":"U","BSTAR":"-0.00027393000000","MEAN_ELEMENT_THEORY":"SGP4","EPOCH":"2022-02-05T16:17:30.187104","GP_ID":"195376850","LAUNCH_DATE":"2020-10-06","MEAN_MOTION_DOT":"-0.00004358","NORAD_CAT_ID":"46573","INCLINATION":"53.0550","FILE":"3292894","DECAY_DATE":null,"OBJECT_TYPE":"PAYLOAD","OBJECT_ID":"2020-070AT","ELEMENT_SET_NO":"999","PERIAPSIS":"546.041","MEAN_MOTION":"15.06390852"},{"APOAPSIS":"548.160","ARG_OF_PERICENTER":"66.5971","SEMIMAJOR_AXIS":"6925.365","OBJECT_NAME":"STARLINK-1660","TLE_LINE2":"2 46574  53.0551  24.0739 0001343  66.5971 293.5160 15.06394605 74687","ECCENTRICITY":"0.00013430","SITE":"AFETR","CENTER_NAME":"EARTH","PERIOD":"95.592","EPHEMERIS_TYPE":"0","TIME_SYSTEM":"UTC","MEAN_MOTION_DDOT":"0.0000000000000","REF_FRAME":"TEME","RA_OF_ASC_NODE":"24.0739","MEAN_ANOMALY":"293.5160","REV_AT_EPOCH":"7468","COUNTRY_CODE":"US","TLE_LINE1":"1 46574U 20070AU  22036.66408678 -.00000995  00000-0 -47953-4 0  9990","RCS_SIZE":"LARGE","GP_ID":"195376359","EPOCH":"2022-02-05T15:56:17.097792","CLASSIFICATION_TYPE":"U","MEAN_ELEMENT_THEORY":"SGP4","BSTAR":"-0.00004795300000","NORAD_CAT_ID":"46574","FILE":"3292895","INCLINATION":"53.0551","LAUNCH_DATE":"2020-10-06","MEAN_MOTION_DOT":"-0.00000995","OBJECT_ID":"2020-070AU","OBJECT_TYPE":"PAYLOAD","DECAY_DATE":null,"PERIAPSIS":"546.300","MEAN_MOTION":"15.06394605","ELEMENT_SET_NO":"999"},{"TLE_LINE2":"2 46575  53.0550 359.3848 0001398  65.0650 295.0484 15.06661135 75020","ECCENTRICITY":"0.00013980","EPHEMERIS_TYPE":"0","PERIOD":"95.576","CENTER_NAME":"EARTH","SITE":"AFETR","APOAPSIS":"547.381","SEMIMAJOR_AXIS":"6924.548","ARG_OF_PERICENTER":"65.0650","OBJECT_NAME":"STARLINK-1675","COUNTRY_CODE":"US","REV_AT_EPOCH":"7502","RCS_SIZE":"LARGE","TLE_LINE1":"1 46575U 20070AV  22036.58724624 -.00165788  00000-0 -11293-1 0  9991","TIME_SYSTEM":"UTC","RA_OF_ASC_NODE":"359.3848","MEAN_ANOMALY":"295.0484","REF_FRAME":"TEME","MEAN_MOTION_DDOT":"0.0000000000000","FILE":"3292904","INCLINATION":"53.0550","NORAD_CAT_ID":"46575","MEAN_MOTION_DOT":"-0.00165788","LAUNCH_DATE":"2020-10-06","GP_ID":"195376389","EPOCH":"2022-02-05T14:05:38.075136","MEAN_ELEMENT_THEORY":"SGP4","BSTAR":"-0.01129300000000","CLASSIFICATION_TYPE":"U","MEAN_MOTION":"15.06661135","PERIAPSIS":"545.445","ELEMENT_SET_NO":"999","OBJECT_TYPE":"PAYLOAD","OBJECT_ID":"2020-070AV","DECAY_DATE":null},{"OBJECT_ID":"2020-070AW","OBJECT_TYPE":"PAYLOAD","DECAY_DATE":null,"ELEMENT_SET_NO":"999","PERIAPSIS":"545.905","MEAN_MOTION":"15.06387291","CLASSIFICATION_TYPE":"U","MEAN_ELEMENT_THEORY":"SGP4","BSTAR":"-0.00023136000000","GP_ID":"195376901","EPOCH":"2022-02-05T15:45:40.163904","LAUNCH_DATE":"2020-10-06","MEAN_MOTION_DOT":"-0.00003725","NORAD_CAT_ID":"46576","FILE":"3292897","INCLINATION":"53.0549","MEAN_MOTION_DDOT":"0.0000000000000","REF_FRAME":"TEME","RA_OF_ASC_NODE":"24.0953","MEAN_ANOMALY":"306.9167","TIME_SYSTEM":"UTC","TLE_LINE1":"1 46576U 20070AW  22036.65671486 -.00003725  00000-0 -23136-3 0  9990","RCS_SIZE":"LARGE","REV_AT_EPOCH":"7468","COUNTRY_CODE":"US","OBJECT_NAME":"STARLINK-1677","APOAPSIS":"548.600","SEMIMAJOR_AXIS":"6925.388","ARG_OF_PERICENTER":"53.2001","CENTER_NAME":"EARTH","SITE":"AFETR","PERIOD":"95.593","EPHEMERIS_TYPE":"0","TLE_LINE2":"2 46576  53.0549  24.0953 0001946  53.2001 306.9167 15.06387291 74689","ECCENTRICITY":"0.00019460"},{"EPOCH":"2022-02-05T16:28:07.961664","GP_ID":"195377960","BSTAR":"-0.00004554800000","MEAN_ELEMENT_THEORY":"SGP4","CLASSIFICATION_TYPE":"U","FILE":"3292983","INCLINATION":"53.0554","NORAD_CAT_ID":"46577","MEAN_MOTION_DOT":"-0.00000960","LAUNCH_DATE":"2020-10-06","DECAY_DATE":null,"OBJECT_ID":"2020-070AX","OBJECT_TYPE":"PAYLOAD","MEAN_MOTION":"15.06395183","PERIAPSIS":"546.120","ELEMENT_SET_NO":"999","SEMIMAJOR_AXIS":"6925.363","ARG_OF_PERICENTER":"73.1312","APOAPSIS":"548.336","OBJECT_NAME":"STARLINK-1682","ECCENTRICITY":"0.00016000","TLE_LINE2":"2 46577  53.0554  23.9771 0001600  73.1312 286.9853 15.06395183 74683","EPHEMERIS_TYPE":"0","PERIOD":"95.592","SITE":"AFETR","CENTER_NAME":"EARTH","TIME_SYSTEM":"UTC","MEAN_ANOMALY":"286.9853","RA_OF_ASC_NODE":"23.9771","REF_FRAME":"TEME","MEAN_MOTION_DDOT":"0.0000000000000","COUNTRY_CODE":"US","REV_AT_EPOCH":"7468","RCS_SIZE":"LARGE","TLE_LINE1":"1 46577U 20070AX  22036.68620326 -.00000960  00000-0 -45548-4 0  9991"},{"MEAN_MOTION_DOT":"0.00000809","LAUNCH_DATE":"2020-10-06","INCLINATION":"53.0557","FILE":"3292709","NORAD_CAT_ID":"46578","MEAN_ELEMENT_THEORY":"SGP4","BSTAR":"0.00007321300000","CLASSIFICATION_TYPE":"U","GP_ID":"195367229","EPOCH":"2022-02-05T07:56:32.593920","ELEMENT_SET_NO":"999","MEAN_MOTION":"15.06403625","PERIAPSIS":"546.191","OBJECT_ID":"2020-070AY","OBJECT_TYPE":"PAYLOAD","DECAY_DATE":null,"EPHEMERIS_TYPE":"0","PERIOD":"95.592","SITE":"AFETR","CENTER_NAME":"EARTH","TLE_LINE2":"2 46578  53.0557  10.5729 0001460  74.0685 286.0465 15.06403625 74848","ECCENTRICITY":"0.00014600","OBJECT_NAME":"STARLINK-1683","APOAPSIS":"548.214","ARG_OF_PERICENTER":"74.0685","SEMIMAJOR_AXIS":"6925.337","RCS_SIZE":"LARGE","TLE_LINE1":"1 46578U 20070AY  22036.33093280  .00000809  00000-0  73213-4 0  9997","COUNTRY_CODE":"US","REV_AT_EPOCH":"7484","RA_OF_ASC_NODE":"10.5729","MEAN_ANOMALY":"286.0465","MEAN_MOTION_DDOT":"0.0000000000000","REF_FRAME":"TEME","TIME_SYSTEM":"UTC"}];
